*******************************************************************************
JPL/HORIZONS                     (2010 RF64)               2013-Dec-01 19:33:00
Rec #:665545 (+COV)   Soln.date: 2013-Aug-15_23:13:30     # obs: 46 (2010-2012)
 
FK5/J2000.0 helio. ecliptic osc. elements (au, days, deg., period=Julian yrs): 
 
  EPOCH=  2456083.5 ! 2012-Jun-05.00 (CT)          Residual RMS= .52764        
   EC= .173986412368073    QR= 35.63075195995137   TP= 2451891.7667863984      
   OM= 131.0602388825079   W=  212.834501395367    IN= 28.6970864310439        
   A= 43.13579400321982    MA= 14.58280313404925   ADIST= 50.64083604648827    
   PER= 283.31196          N= .003478943           ANGMOM= .11125652           
   DAN= 48.99221           DDN= 36.49483           L= 340.5720938              
   B= -15.0914178          MOID= 34.6570015        TP= 2000-Dec-13.2667863984  
 
Asteroid physical parameters (km, seconds, rotational period in hours):        
   GM= n.a.                RAD= n.a.               ROTPER= n.a.                
   H= 5.                   G= .150                 B-V= n.a.                   
                           ALBEDO= n.a.            STYP= n.a.                  
 
ASTEROID comments: 
1: soln ref.= JPL#1, OCC=6
2: source=ORB
*******************************************************************************
 

 

*******************************************************************************
Ephemeris / WWW_USER Sun Dec  1 19:33:00 2013 Pasadena, USA      / Horizons    
*******************************************************************************
Target body name: (2010 RF64)                     {source: JPL#1}
Center body name: Earth (399)                     {source: DE-0431LE-0431}
Center-site name: San Pedro Martir
*******************************************************************************
Start time      : A.D. 2013-Jan-01 00:00:00.0000 UT      
Stop  time      : A.D. 2014-Dec-31 00:00:00.0000 UT      
Step-size       : 1440 minutes
*******************************************************************************
Target pole/equ : No model available
Target radii    : (unavailable)                                                
Center geodetic : 244.536700,31.0434585,2.8281109 {E-lon(deg),Lat(deg),Alt(km)}
Center cylindric: 244.536700,5471.93108,3271.4810 {E-lon(deg),Dxy(km),Dz(km)}
Center pole/equ : High-precision EOP model        {East-longitude +}
Center radii    : 6378.1 x 6378.1 x 6356.8 km     {Equator, meridian, pole}    
Target primary  : Sun
Vis. interferer : MOON (R_eq= 1737.400) km        {source: DE-0431LE-0431}
Rel. light bend : Sun, EARTH                      {source: DE-0431LE-0431}
Rel. lght bnd GM: 1.3271E+11, 3.9860E+05 km^3/s^2                              
Small-body perts: Yes                             {source: SB431-BIG16}
Atmos refraction: NO (AIRLESS)
RA format       : DEG
Time format     : BOTH
EOP file        : eop.131128.p140219                                           
EOP coverage    : DATA-BASED 1962-JAN-20 TO 2013-NOV-28. PREDICTS-> 2014-FEB-18
Units conversion: 1 au= 149597870.700 km, c= 299792.458 km/s, 1 day= 86400.0 s 
Table cut-offs 1: Elevation (-90.0deg=NO ),Airmass (>38.000=NO), Daylight (NO )
Table cut-offs 2: Solar Elongation (  0.0,180.0=NO ),Local Hour Angle( 0.0=NO )
*******************************************************************************
Initial FK5/J2000.0 heliocentric ecliptic osculating elements (au, days, deg.):
  EPOCH=  2456083.5 ! 2012-Jun-05.00 (CT)          Residual RMS= .52764        
   EC= .173986412368073    QR= 35.63075195995137   TP= 2451891.7667863984      
   OM= 131.0602388825079   W=  212.834501395367    IN= 28.6970864310439        
Asteroid physical parameters (km, seconds, rotational period in hours):        
   GM= n.a.                RAD= n.a.               ROTPER= n.a.                
   H= 5.                   G= .150                 B-V= n.a.                   
                           ALBEDO= n.a.            STYP= n.a.                  
************************************************************************************************************
 Date__(UT)__HR:MN Date_________JDUT     R.A._(J2000.0)_DEC. dRA*cosD d(DEC)/dt            delta      deldot
************************************************************************************************************
$$SOE
 2013-Jun-03 00:00 2456446.500000000 *    13.73838 -19.28323 2.762494  -0.54686 36.3844174751496 -24.1619777
 2013-Jun-04 00:00 2456447.500000000 *    13.75751 -19.28709 2.712331  -0.58279 36.3702309377046 -24.3314784
 2013-Jun-05 00:00 2456448.500000000 *    13.77628 -19.29118 2.661520  -0.61858 36.3559505205166 -24.4940127
 2013-Jun-06 00:00 2456449.500000000 *m   13.79468 -19.29552 2.610079  -0.65423 36.3415803375318 -24.6494513
 2013-Jun-07 00:00 2456450.500000000 *m   13.81272 -19.30009 2.558027  -0.68971 36.3271245720486 -24.7976814
 2013-Jun-08 00:00 2456451.500000000 *m   13.83038 -19.30489 2.505387  -0.72500 36.3125874670825 -24.9386070
 2013-Jun-09 00:00 2456452.500000000 *m   13.84766 -19.30993 2.452181  -0.76010 36.2979733158561 -25.0721483
 2013-Jun-10 00:00 2456453.500000000 *m   13.86455 -19.31520 2.398434  -0.79498 36.2832864523317 -25.1982419
 2013-Jun-11 00:00 2456454.500000000 *m   13.88106 -19.32071 2.344169  -0.82962 36.2685312418784 -25.3168403
 2013-Jun-12 00:00 2456455.500000000 *m   13.89719 -19.32644 2.289412  -0.86402 36.2537120722457 -25.4279114
 2013-Jun-13 00:00 2456456.500000000 *m   13.91291 -19.33240 2.234189  -0.89816 36.2388333449503 -25.5314373
 2013-Jun-14 00:00 2456457.500000000 *m   13.92825 -19.33858 2.178525  -0.93203 36.2238994669768 -25.6274147
 2013-Jun-15 00:00 2456458.500000000 *m   13.94318 -19.34499 2.122447  -0.96562 36.2089148423959 -25.7158550
 2013-Jun-16 00:00 2456459.500000000 *m   13.95771 -19.35162 2.065981  -0.99891 36.1938838631886 -25.7967868
 2013-Jun-17 00:00 2456460.500000000 *m   13.97184 -19.35847 2.009154  -1.03190 36.1788108983690 -25.8702594
 2013-Jun-18 00:00 2456461.500000000 *m   13.98556 -19.36553 1.951992  -1.06458 36.1637002805582 -25.9363480
 2013-Jun-19 00:00 2456462.500000000 *m   13.99887 -19.37282 1.894521  -1.09695 36.1485562897323 -25.9951578
 2013-Jun-20 00:00 2456463.500000000 *m   14.01177 -19.38031 1.836763  -1.12900 36.1333831352034 -26.0468254
 2013-Jun-21 00:00 2456464.500000000 *    14.02426 -19.38802 1.778733  -1.16074 36.1181849390774 -26.0915116
 2013-Jun-22 00:00 2456465.500000000 *    14.03633 -19.39594 1.720439  -1.19218 36.1029657269240 -26.1293831
 2013-Jun-23 00:00 2456466.500000000 *    14.04799 -19.40406 1.661876  -1.22332 36.0877294326060 -26.1605824
 2013-Jun-24 00:00 2456467.500000000 *    14.05923 -19.41239 1.603031  -1.25417 36.0724799220098 -26.1851945
 2013-Jun-25 00:00 2456468.500000000 *    14.07004 -19.42092 1.543886  -1.28474 36.0572210340715 -26.2032225
 2013-Jun-26 00:00 2456469.500000000 *    14.08044 -19.42966 1.484421  -1.31503 36.0419566298022 -26.2145855
 2013-Jun-27 00:00 2456470.500000000 *    14.09041 -19.43859 1.424622  -1.34503 36.0266906361595 -26.2191380
 2013-Jun-28 00:00 2456471.500000000 *    14.09995 -19.44772 1.364485  -1.37471 36.0114270745313 -26.2167012
 2013-Jun-29 00:00 2456472.500000000 *    14.10906 -19.45705 1.304015  -1.40408 35.9961700708703 -26.2070931
 2013-Jun-30 00:00 2456473.500000000 *    14.11775 -19.46657 1.243222  -1.43309 35.9809238510794 -26.1901490
 2013-Jul-01 00:00 2456474.500000000 *    14.12599 -19.47628 1.182124  -1.46175 35.9656927280103 -26.1657303
 2013-Jul-02 00:00 2456475.500000000 *    14.13380 -19.48618 1.120742  -1.49002 35.9504810857546 -26.1337254
 2013-Jul-03 00:00 2456476.500000000 *    14.14118 -19.49626 1.059099  -1.51788 35.9352933647213 -26.0940471
 2013-Jul-04 00:00 2456477.500000000 *    14.14811 -19.50653 0.997220  -1.54533 35.9201340488985 -26.0466279
 2013-Jul-05 00:00 2456478.500000000 *m   14.15460 -19.51697 0.935131  -1.57234 35.9050076553070 -25.9914173
 2013-Jul-06 00:00 2456479.500000000 *m   14.16065 -19.52760 0.872858  -1.59890 35.8899187249925 -25.9283792
 2013-Jul-07 00:00 2456480.500000000 *m   14.16626 -19.53839 0.810430  -1.62499 35.8748718147352 -25.8574918
 2013-Jul-08 00:00 2456481.500000000 *m   14.17142 -19.54936 0.747873  -1.65060 35.8598714887857 -25.7787480
 2013-Jul-09 00:00 2456482.500000000 *m   14.17614 -19.56050 0.685219  -1.67571 35.8449223102013 -25.6921559
 2013-Jul-10 00:00 2456483.500000000 *m   14.18041 -19.57180 0.622496  -1.70031 35.8300288316361 -25.5977400
 2013-Jul-11 00:00 2456484.500000000 *m   14.18423 -19.58326 0.559736  -1.72440 35.8151955856488 -25.4955421
 2013-Jul-12 00:00 2456485.500000000 *m   14.18761 -19.59488 0.496968  -1.74795 35.8004270746713 -25.3856215
 2013-Jul-13 00:00 2456486.500000000 *m   14.19054 -19.60665 0.434222  -1.77096 35.7857277607124 -25.2680555
 2013-Jul-14 00:00 2456487.500000000 *m   14.19303 -19.61857 0.371529  -1.79342 35.7711020546979 -25.1429402
 2013-Jul-15 00:00 2456488.500000000 *m   14.19507 -19.63063 0.308917  -1.81533 35.7565543051814 -25.0103923
 2013-Jul-16 00:00 2456489.500000000 *m   14.19666 -19.64284 0.246414  -1.83669 35.7420887861573 -24.8705500
 2013-Jul-17 00:00 2456490.500000000 *m   14.19781 -19.65519 0.184045  -1.85748 35.7277096840668 -24.7235746
 2013-Jul-18 00:00 2456491.500000000 *m   14.19852 -19.66767 0.121831  -1.87772 35.7134210849928 -24.5696480
 2013-Jul-19 00:00 2456492.500000000 *m   14.19879 -19.68028 0.059785  -1.89742 35.6992269645374 -24.4089652
 2013-Jul-20 00:00 2456493.500000000 *m   14.19861 -19.69303 -0.00208  -1.91657 35.6851311845972 -24.2417179
 2013-Jul-21 00:00 2456494.500000000 *    14.19800 -19.70589 -0.06378  -1.93519 35.6711375021562 -24.0680692
 2013-Jul-22 00:00 2456495.500000000 *    14.19695 -19.71888 -0.12531  -1.95329 35.6572495937663 -23.8881263
 2013-Jul-23 00:00 2456496.500000000 *    14.19546 -19.73198 -0.18670  -1.97087 35.6434710946817 -23.7019191
